QIANFAN-57              
1 62787U 25016C   25238.91289142  .00000115  00000+0  15998-3 0  9991
2 62787  88.9814 114.3287 0002682  81.9891 278.1565 13.50961521 32642
QIANFAN-58              
1 62788U 25016D   25238.88411096  .00000099  00000+0  13476-3 0  9993
2 62788  88.9784 114.1968 0012478 301.0859  58.9067 13.50960631 32683
QIANFAN-59              
1 62789U 25016E   25238.89642657  .00000102  00000+0  13902-3 0  9993
2 62789  88.9807 114.2405 0013461 304.1493  55.8381 13.50964858 32688
QIANFAN-60              
1 62790U 25016F   25238.88804357  .00000096  00000+0  13034-3 0  9999
2 62790  88.9788 114.2413 0013874 301.5888  58.3908 13.50962090 32661
QIANFAN-61              
1 62791U 25016G   25238.90052641  .00000114  00000+0  15828-3 0  9998
2 62791  88.9856 114.3246 0013291 300.2088  59.7747 13.50967776 32688
QIANFAN-62              
1 62792U 25016H   25238.90454560  .00000118  00000+0  16366-3 0  9997
2 62792  88.9802 114.2509 0014680 300.1072  59.8623 13.50961768 32674
QIANFAN-63              
1 62793U 25016J   25238.91695441  .00000112  00000+0  15567-3 0  9990
2 62793  88.9809 114.1911 0014604 305.0972  54.8809 13.50958853 32714
QIANFAN-64              
1 62794U 25016K   25238.90864858  .00000112  00000+0  15515-3 0  9993
2 62794  88.9795 114.1865 0012286 299.0240  60.9680 13.50961347 32707
